STARLINK-2288           
1 48034U 21024BK  25093.91668981  .00910106  00000+0  39151-2 0  9992
2 48034  53.0515  44.5630 0001155 114.6608 244.8300 15.82121335  5221
STARLINK-2295           
1 48036U 21024BM  25094.30410998  .01192731  83615-3  15545-2 0  9996
2 48036  53.0424   4.6717 0005412 211.8918 247.6615 16.06540305223657
ONEWEB-0115             
1 48042U 21025A   25093.85953903  .00000335  00000+0  88261-3 0  9997
2 48042  87.8951  47.5270 0001948  80.7792 279.3557 13.13470137195922
ONEWEB-0152             
1 48043U 21025B   25093.94924660  .00000109  00000+0  26255-3 0  9990
2 48043  87.8957  47.5193 0002086  80.3061 279.8304 13.13471029195906
ONEWEB-0153             
1 48044U 21025C   25093.92725339  .00000237  00000+0  61532-3 0  9990
2 48044  87.8959  47.5187 0001867  81.4879 278.6462 13.13471464195890
ONEWEB-0154             
1 48045U 21025D   25094.38093077  .00000289  00000+0  75762-3 0  9996
2 48045  87.8956  47.4307 0001935  79.7618 280.3729 13.13472543195916
ONEWEB-0116             
1 48046U 21025E   25094.41987229 -.00000069  00000+0 -22513-3 0  9996
2 48046  87.8961  47.3996 0002061  78.5592 281.5768 13.13470951196058
ONEWEB-0150             
1 48047U 21025F   25093.93909733  .00000313  00000+0  82327-3 0  9996
2 48047  87.8954  47.4980 0001790  84.7949 275.3384 13.13470769195880
ONEWEB-0107             
1 48048U 21025G   25093.94079622  .00000312  00000+0  82030-3 0  9993
2 48048  87.8953  47.4955 0001533  81.6776 278.4527 13.13470296195867
ONEWEB-0101             
1 48049U 21025H   25094.36060470 -.00000188  00000+0 -54891-3 0  9999
2 48049  87.8959  47.4451 0001828  78.0125 282.1209 13.13473023195893
ONEWEB-0113             
1 48050U 21025J   25093.94135049  .00000279  00000+0  72265-3 0  9993
2 48050  87.8958  47.5004 0001957  83.4382 276.6970 13.13988837195928
ONEWEB-0112             
1 48051U 21025K   25094.40294326  .00000292  00000+0  76375-3 0  9991
2 48051  87.8953  47.4008 0001889  83.5347 276.5997 13.13470751196002
ONEWEB-0156             
1 48052U 21025L   25093.87815630 -.00000087  00000+0 -27351-3 0  9993
2 48052  87.8959  47.5130 0001766  82.8154 277.3176 13.13470035195909
ONEWEB-0161             
1 48053U 21025M   25093.92894894  .00000388  00000+0  10271-2 0  9993
2 48053  87.8960  47.5184 0001728  82.8939 277.2387 13.13470719195856
ONEWEB-0158             
1 48054U 21025N   25094.42155329 -.00000065  00000+0 -21296-3 0  9997
2 48054  87.8958  47.4018 0001979  84.6249 275.5106 13.13469456196038
ONEWEB-0157             
1 48055U 21025P   25094.37076888 -.00000015  00000+0 -76491-4 0  9997
2 48055  87.8956  47.4244 0001461  85.4648 274.6648 13.13470364195979
ONEWEB-0162             
1 48056U 21025Q   25094.58335648 -.00021937  00000+0 -60247-1 0  9998
2 48056  87.8952  47.3806 0001963  84.0868 313.4406 13.13473255195959
ONEWEB-0155             
1 48057U 21025R   25094.35382712 -.00000137  00000+0 -41086-3 0  9999
2 48057  87.8956  47.4338 0001794  76.2881 283.8447 13.13473082196083
ONEWEB-0149             
1 48058U 21025S   25094.37585002  .00000139  00000+0  34486-3 0  9995
2 48058  87.8954  47.4250 0001993  88.6990 271.4367 13.13471004195898
ONEWEB-0148             
1 48059U 21025T   25094.41478518  .00000087  00000+0  20460-3 0  9993
2 48059  87.8960  47.4371 0001846 102.6372 257.4963 13.13470276196019
ONEWEB-0160             
1 48060U 21025U   25093.89846563 -.00000224  00000+0 -64785-3 0  9998
2 48060  87.8958  47.5364 0002787  76.1484 283.9955 13.13472936195890
ONEWEB-0163             
1 48061U 21025V   25094.41647557  .00000020  00000+0  19327-4 0  9995
2 48061  87.8959  47.4173 0001643  81.7798 278.3517 13.13469349196098
ONEWEB-0159             
1 48062U 21025W   25094.40801529  .00000197  00000+0  50489-3 0  9994
2 48062  87.8957  47.4008 0001739  84.8575 275.2753 13.13473124196002
ONEWEB-0164             
1 48063U 21025X   25094.16086686  .00000828  00000+0  22326-2 0  9996
2 48063  87.8958  47.4607 0001893  79.0664 281.0678 13.13468440195965
ONEWEB-0167             
1 48064U 21025Y   25094.41733446  .00000002  00000+0 -30187-4 0  9999
2 48064  87.8967  47.4308 0001400  57.6098 302.5167 13.13468335195977
ONEWEB-0166             
1 48065U 21025Z   25093.90693492 -.00000194  00000+0 -56651-3 0  9995
2 48065  87.8952  47.4991 0001877  87.2239 272.9105 13.13470562195982
ONEWEB-0151             
1 48066U 21025AA  25094.36568960 -.00000057  00000+0 -19060-3 0  9999
2 48066  87.8955  47.4283 0001866  76.6811 283.4526 13.13469767195996
ONEWEB-0170             
1 48067U 21025AB  25093.84091558  .00000132  00000+0  32779-3 0  9990
2 48067  87.8955  47.5376 0002198  68.5143 291.6221 13.13469776195878
ONEWEB-0168             
1 48068U 21025AC  25094.35890027 -.00000223  00000+0 -64452-3 0  9992
2 48068  87.8961  47.4120 0001860  80.8330 279.3010 13.13468437195953
ONEWEB-0173             
1 48069U 21025AD  25093.89338954 -.00000176  00000+0 -51807-3 0  9994
2 48069  87.8960  47.5134 0001501  75.1395 284.9900 13.13469815196131
ONEWEB-0171             
1 48070U 21025AE  25094.38770016  .00000452  00000+0  12039-2 0  9998
2 48070  87.8961  47.4526 0001871  77.4200 282.7139 13.13470975196014
ONEWEB-0172             
1 48071U 21025AF  25093.91031699 -.00000117  00000+0 -35426-3 0  9990
2 48071  87.8958  47.5140 0001775  75.5979 284.5347 13.13470025196847
ONEWEB-0174             
1 48072U 21025AG  25093.89169823 -.00000278  00000+0 -79606-3 0  9995
2 48072  87.8960  47.5310 0001867  84.2123 275.9218 13.13470576196167
ONEWEB-0175             
1 48073U 21025AH  25093.92217483  .00000244  00000+0  63432-3 0  9997
2 48073  87.8952  47.4973 0001974  71.5091 288.6253 13.13472508195824
ONEWEB-0177             
1 48074U 21025AJ  25094.39108660  .00000513  00000+0  13701-2 0  9998
2 48074  87.8956  47.4160 0001634  84.9717 275.1598 13.13470114196075
ONEWEB-0178             
1 48075U 21025AK  25094.40984483  .00000103  00000+0  24800-3 0  9994
2 48075  87.8964  47.4505 0001716  78.6669 281.4653 13.13469533196126
ONEWEB-0108             
1 48076U 21025AL  25094.36907256 -.00000052  00000+0 -17630-3 0  9991
2 48076  87.8954  47.4160 0002111  85.3319 274.8051 13.13469561196051
ONEWEB-0169             
1 48077U 21025AM  25093.94418125  .00000223  00000+0  57683-3 0  9997
2 48077  87.8956  47.5184 0002096  85.3317 274.8051 13.13470243195880
GAOFEN-12 02            
1 48079U 21026A   25094.50704193  .00001194  00000+0  16370-3 0  9992
2 48079  97.9730  89.9624 0002030 164.2439 195.8836 14.80295396216856
STARLINK-2404           
1 48093U 21027B   25094.45158622  .00000291  00000+0  38436-4 0  9998
2 48093  53.0548 244.7160 0001382  81.4698 278.6448 15.06390654221020
STARLINK-2412           
1 48094U 21027C   25094.46905809  .00001369  00000+0  11073-3 0  9991
2 48094  53.0551 254.4385 0001180  80.8921 279.2202 15.06409159220890
STARLINK-2414           
1 48095U 21027D   25094.47643594  .00001102  00000+0  92868-4 0  9990
2 48095  53.0554 254.4040 0001139  74.5238 285.5876 15.06395954220891
STARLINK-2417           
1 48096U 21027E   25094.45062746  .00002102  00000+0  15996-3 0  9990
2 48096  53.0533 254.5202 0002073  89.3051 270.8176 15.06407899220886
STARLINK-2418           
1 48097U 21027F   25094.36401456 -.00000276  00000+0  39080-6 0  9990
2 48097  53.0552 234.9106 0001378  82.6581 277.4565 15.06390011221157
STARLINK-2421           
1 48098U 21027G   25094.40731998  .00004023  00000+0  28877-3 0  9995
2 48098  53.0537 244.7137 0001332  85.2415 274.8726 15.06406011221078
STARLINK-2428           
1 48099U 21027H   25094.46169358  .00000605  00000+0  59524-4 0  9993
2 48099  53.0537 254.4725 0001270  91.0506 269.0629 15.06394812220888
STARLINK-2430           
1 48100U 21027J   25094.42298070 -.00008083  00000+0 -52455-3 0  9991
2 48100  53.0539 234.6454 0001217  73.7322 286.3801 15.06386135221161
STARLINK-2436           
1 48101U 21027K   25093.69595129  .00007556  00000+0  52533-3 0  9994
2 48101  53.0541 248.1095 0001219 101.2061 258.9065 15.06419954221315
STARLINK-2437           
1 48102U 21027L   25094.38243575  .00006896  00000+0  48127-3 0  9997
2 48102  53.0534 234.8238 0001357  88.0338 272.0807 15.06410625221150
STARLINK-2439           
1 48104U 21027N   25093.67242832  .00009565  00000+0  65980-3 0  9997
2 48104  53.0533 243.0109 0001039  80.6266 279.4840 15.06421014221382
STARLINK-2440           
1 48105U 21027P   25094.50870265  .00022222  00000+0  15050-2 0  9995
2 48105  53.0530 184.2628 0001239  83.6180 276.4950 15.06425939221875
STARLINK-2442           
1 48106U 21027Q   25094.36031920  .00006709  00000+0  46875-3 0  9999
2 48106  53.0545 234.9361 0001300  88.5475 271.5663 15.06410263221151
STARLINK-2443           
1 48107U 21027R   25093.71160381  .00002118  00000+0  16104-3 0  9994
2 48107  53.0549 237.8364 0001793  61.1016 299.0153 15.06407349221458
STARLINK-2448           
1 48111U 21027V   25094.39625901  .00001537  00000+0  12201-3 0  9996
2 48111  53.0541 244.7349 0000607  76.4349 283.6708 15.06401559221021
STARLINK-2449           
1 48112U 21027W   25094.45572064  .00001543  00000+0  12247-3 0  9992
2 48112  53.0538 259.6593 0001505  90.2500 269.8661 15.06395965220818
STARLINK-2450           
1 48113U 21027X   25094.45800098  .00001191  00000+0  98822-4 0  9997
2 48113  53.0541 254.4888 0001459  78.9895 281.1258 15.06416708220886
STARLINK-2452           
1 48115U 21027Z   25094.38152371  .00000931  00000+0  81382-4 0  9999
2 48115  53.0545 244.8436 0001256  92.4415 267.6718 15.06394441221013
STARLINK-2454           
1 48116U 21027AA  25093.72449154  .00004914  00000+0  34836-3 0  9991
2 48116  53.0539 257.7795 0001201  89.1218 270.9908 15.06420744221173
STARLINK-2455           
1 48117U 21027AB  25094.42571882  .00006907  00000+0  48184-3 0  9999
2 48117  53.0536 234.6199 0001009  55.5119 304.5966 15.06422218221161
STARLINK-2459           
1 48119U 21027AD  25094.16770435 -.00010652  00000+0 -69745-3 0  9997
2 48119  53.0531 235.7810 0001399  87.2914 272.8235 15.06391318221125
